{
"type": "FeatureCollection",
"name": "raw_police_location",
"crs": { "type": "name", "properties": { "name": "urn:ogc:def:crs:OGC:1.3:CRS84" } },
"features": [
{ "type": "Feature", "properties": { "_id": 1, "OBJECTID_1": 1, "FACILITY": "11 Division", "ORGANIZATION": "Toronto Police Services", "ADDRESS": "2054 Davenport Road ", "POSTAL_CODE": "M6N 1C8" }, "geometry": { "type": "Point", "coordinates": [ -79.460828331832104, 43.671079704101999 ] } },
{ "type": "Feature", "properties": { "_id": 2, "OBJECTID_1": 2, "FACILITY": "12 Division ", "ORGANIZATION": "Toronto Police Services", "ADDRESS": "200 Trethewey Drive ", "POSTAL_CODE": "M6M 5E6" }, "geometry": { "type": "Point", "coordinates": [ -79.486875808172499, 43.694579142092799 ] } },
{ "type": "Feature", "properties": { "_id": 3, "OBJECTID_1": 3, "FACILITY": "13 Division", "ORGANIZATION": "Toronto Police Services", "ADDRESS": "1435 Eglinton Avenue West ", "POSTAL_CODE": "M6C 3Z4" }, "geometry": { "type": "Point", "coordinates": [ -79.436683017408996, 43.698327247001203 ] } },
{ "type": "Feature", "properties": { "_id": 4, "OBJECTID_1": 4, "FACILITY": "14 Division", "ORGANIZATION": "Toronto Police Services", "ADDRESS": "350 Dovercourt Road ", "POSTAL_CODE": "M6J 3E3" }, "geometry": { "type": "Point", "coordinates": [ -79.425981200993405, 43.6513054941584 ] } },
{ "type": "Feature", "properties": { "_id": 5, "OBJECTID_1": 5, "FACILITY": "22 Division", "ORGANIZATION": "Toronto Police Services", "ADDRESS": "3699 Bloor Street West ", "POSTAL_CODE": "M9A 1A2" }, "geometry": { "type": "Point", "coordinates": [ -79.529184555346504, 43.643106897093098 ] } },
{ "type": "Feature", "properties": { "_id": 6, "OBJECTID_1": 6, "FACILITY": "23 Division", "ORGANIZATION": "Toronto Police Services", "ADDRESS": "5230 Finch Avenue West ", "POSTAL_CODE": "M9V 0A1" }, "geometry": { "type": "Point", "coordinates": [ -79.583521688336603, 43.743866057459101 ] } },
{ "type": "Feature", "properties": { "_id": 7, "OBJECTID_1": 7, "FACILITY": "31 Division", "ORGANIZATION": "Toronto Police Services", "ADDRESS": "40 Norfinch Drive ", "POSTAL_CODE": "M3N 1X1" }, "geometry": { "type": "Point", "coordinates": [ -79.527474282482302, 43.756750469252097 ] } },
{ "type": "Feature", "properties": { "_id": 8, "OBJECTID_1": 8, "FACILITY": "32 Division", "ORGANIZATION": "Toronto Police Services", "ADDRESS": "30 Ellerslie Avenue ", "POSTAL_CODE": "M2N 1X8" }, "geometry": { "type": "Point", "coordinates": [ -79.415087186730602, 43.771728204934597 ] } },
{ "type": "Feature", "properties": { "_id": 9, "OBJECTID_1": 9, "FACILITY": "33 Division", "ORGANIZATION": "Toronto Police Services", "ADDRESS": "50 Upjohn Road ", "POSTAL_CODE": "M3B 2W1" }, "geometry": { "type": "Point", "coordinates": [ -79.350068663118606, 43.751081642194599 ] } },
{ "type": "Feature", "properties": { "_id": 10, "OBJECTID_1": 10, "FACILITY": "41 Division", "ORGANIZATION": "Toronto Police Services", "ADDRESS": "2222 Eglinton Avenue East ", "POSTAL_CODE": "M1K 2M2" }, "geometry": { "type": "Point", "coordinates": [ -79.277110452992503, 43.730805496861301 ] } },
{ "type": "Feature", "properties": { "_id": 11, "OBJECTID_1": 11, "FACILITY": "42 Division", "ORGANIZATION": "Toronto Police Services", "ADDRESS": "242 Milner Avenue", "POSTAL_CODE": "M1S 5C4" }, "geometry": { "type": "Point", "coordinates": [ -79.240012106044702, 43.789373894863601 ] } },
{ "type": "Feature", "properties": { "_id": 12, "OBJECTID_1": 12, "FACILITY": "43 Division", "ORGANIZATION": "Toronto Police Services", "ADDRESS": "4331 Lawrence Avenue East ", "POSTAL_CODE": "M1E 2T4" }, "geometry": { "type": "Point", "coordinates": [ -79.174056591293194, 43.770835358518497 ] } },
{ "type": "Feature", "properties": { "_id": 13, "OBJECTID_1": 13, "FACILITY": "51 Division", "ORGANIZATION": "Toronto Police Services", "ADDRESS": "51 Parliament Street", "POSTAL_CODE": "M5A 2Y5" }, "geometry": { "type": "Point", "coordinates": [ -79.362142235594007, 43.651951390118597 ] } },
{ "type": "Feature", "properties": { "_id": 14, "OBJECTID_1": 14, "FACILITY": "52 Division", "ORGANIZATION": "Toronto Police Services", "ADDRESS": "255 Dundas Street West ", "POSTAL_CODE": "M5T 2W5" }, "geometry": { "type": "Point", "coordinates": [ -79.389717591620993, 43.654209021290001 ] } },
{ "type": "Feature", "properties": { "_id": 15, "OBJECTID_1": 15, "FACILITY": "53 Division", "ORGANIZATION": "Toronto Police Services", "ADDRESS": "75 Eglinton Avenue West ", "POSTAL_CODE": "M4R 2G9" }, "geometry": { "type": "Point", "coordinates": [ -79.400661806520404, 43.706060012978 ] } },
{ "type": "Feature", "properties": { "_id": 16, "OBJECTID_1": 16, "FACILITY": "55 Substation", "ORGANIZATION": "Toronto Police Services", "ADDRESS": "41 Cranfield Road ", "POSTAL_CODE": "M4B 3H6" }, "geometry": { "type": "Point", "coordinates": [ -79.309482768007598, 43.7146083755555 ] } },
{ "type": "Feature", "properties": { "_id": 17, "OBJECTID_1": 17, "FACILITY": "55 Division", "ORGANIZATION": "Toronto Police Services", "ADDRESS": "101 Coxwell Avenue ", "POSTAL_CODE": "M4L 3B3" }, "geometry": { "type": "Point", "coordinates": [ -79.317299347674805, 43.669180018166102 ] } },
{ "type": "Feature", "properties": { "_id": 18, "OBJECTID_1": 18, "FACILITY": "Traffic Services", "ORGANIZATION": "Toronto Police Services", "ADDRESS": "9 Hanna Avenue", "POSTAL_CODE": "M6K 1W8" }, "geometry": { "type": "Point", "coordinates": [ -79.417224042031506, 43.637631413127103 ] } },
{ "type": "Feature", "properties": { "_id": 19, "OBJECTID_1": 19, "FACILITY": "East Collision Reporting Centre", "ORGANIZATION": "Toronto Police Services", "ADDRESS": "39 Howden Road", "POSTAL_CODE": "M1R 3C7" }, "geometry": { "type": "Point", "coordinates": [ -79.288237903150701, 43.749555496681303 ] } },
{ "type": "Feature", "properties": { "_id": 20, "OBJECTID_1": 20, "FACILITY": "North Collision Reporting Centre", "ORGANIZATION": "Toronto Police Services", "ADDRESS": "113 Toryork Drive ", "POSTAL_CODE": "M9L 1X9" }, "geometry": { "type": "Point", "coordinates": [ -79.551535209163106, 43.7564091641106 ] } },
{ "type": "Feature", "properties": { "_id": 21, "OBJECTID_1": 21, "FACILITY": "Mounted Unit", "ORGANIZATION": "Toronto Police Services", "ADDRESS": "91 Manitoba Drive ", "POSTAL_CODE": "M6K 3C3" }, "geometry": { "type": "Point", "coordinates": [ -79.418097802111404, 43.635266615669202 ] } },
{ "type": "Feature", "properties": { "_id": 22, "OBJECTID_1": 22, "FACILITY": "Toronto Police College", "ORGANIZATION": "Toronto Police Services", "ADDRESS": "70 Birmingham Street", "POSTAL_CODE": "M8V 3W6" }, "geometry": { "type": "Point", "coordinates": [ -79.503482378896294, 43.605084207509002 ] } },
{ "type": "Feature", "properties": { "_id": 23, "OBJECTID_1": 23, "FACILITY": "Headquarters", "ORGANIZATION": "Toronto Police Services", "ADDRESS": "40 College Street ", "POSTAL_CODE": "M5G 2J3" }, "geometry": { "type": "Point", "coordinates": [ -79.385142905759594, 43.661357715759898 ] } },
{ "type": "Feature", "properties": { "_id": 24, "OBJECTID_1": 24, "FACILITY": "Parking Enforcement East/Property & Evidence Management", "ORGANIZATION": "Toronto Police Services", "ADDRESS": "330 Progress Avenue", "POSTAL_CODE": "M1P 2Z4" }, "geometry": { "type": "Point", "coordinates": [ -79.2685386609148, 43.774173146908701 ] } },
{ "type": "Feature", "properties": { "_id": 25, "OBJECTID_1": 25, "FACILITY": "Parking Enforcement West", "ORGANIZATION": "Toronto Police Services", "ADDRESS": "970 Lawrence Avenue West ", "POSTAL_CODE": "M6A 3B6" }, "geometry": { "type": "Point", "coordinates": [ -79.458292365645804, 43.713761023762999 ] } },
{ "type": "Feature", "properties": { "_id": 26, "OBJECTID_1": 26, "FACILITY": "Marine Headquarters", "ORGANIZATION": "Toronto Police Services", "ADDRESS": "259 Queens Quay West ", "POSTAL_CODE": "M5V 1A2" }, "geometry": { "type": "Point", "coordinates": [ -79.385874047008897, 43.637869851566698 ] } },
{ "type": "Feature", "properties": { "_id": 1, "OBJECTID_1": 1, "FACILITY": "11 Division", "ORGANIZATION": "Toronto Police Services", "ADDRESS": "2054 Davenport Road ", "POSTAL_CODE": "M6N 1C8" }, "geometry": { "type": "Point", "coordinates": [ -79.460828331832104, 43.671079704101999 ] } },
{ "type": "Feature", "properties": { "_id": 2, "OBJECTID_1": 2, "FACILITY": "12 Division ", "ORGANIZATION": "Toronto Police Services", "ADDRESS": "200 Trethewey Drive ", "POSTAL_CODE": "M6M 5E6" }, "geometry": { "type": "Point", "coordinates": [ -79.486875808172499, 43.694579142092799 ] } },
{ "type": "Feature", "properties": { "_id": 3, "OBJECTID_1": 3, "FACILITY": "13 Division", "ORGANIZATION": "Toronto Police Services", "ADDRESS": "1435 Eglinton Avenue West ", "POSTAL_CODE": "M6C 3Z4" }, "geometry": { "type": "Point", "coordinates": [ -79.436683017408996, 43.698327247001203 ] } },
{ "type": "Feature", "properties": { "_id": 4, "OBJECTID_1": 4, "FACILITY": "14 Division", "ORGANIZATION": "Toronto Police Services", "ADDRESS": "350 Dovercourt Road ", "POSTAL_CODE": "M6J 3E3" }, "geometry": { "type": "Point", "coordinates": [ -79.425981200993405, 43.6513054941584 ] } },
{ "type": "Feature", "properties": { "_id": 5, "OBJECTID_1": 5, "FACILITY": "22 Division", "ORGANIZATION": "Toronto Police Services", "ADDRESS": "3699 Bloor Street West ", "POSTAL_CODE": "M9A 1A2" }, "geometry": { "type": "Point", "coordinates": [ -79.529184555346504, 43.643106897093098 ] } },
{ "type": "Feature", "properties": { "_id": 6, "OBJECTID_1": 6, "FACILITY": "23 Division", "ORGANIZATION": "Toronto Police Services", "ADDRESS": "5230 Finch Avenue West ", "POSTAL_CODE": "M9V 0A1" }, "geometry": { "type": "Point", "coordinates": [ -79.583521688336603, 43.743866057459101 ] } },
{ "type": "Feature", "properties": { "_id": 7, "OBJECTID_1": 7, "FACILITY": "31 Division", "ORGANIZATION": "Toronto Police Services", "ADDRESS": "40 Norfinch Drive ", "POSTAL_CODE": "M3N 1X1" }, "geometry": { "type": "Point", "coordinates": [ -79.527474282482302, 43.756750469252097 ] } },
{ "type": "Feature", "properties": { "_id": 8, "OBJECTID_1": 8, "FACILITY": "32 Division", "ORGANIZATION": "Toronto Police Services", "ADDRESS": "30 Ellerslie Avenue ", "POSTAL_CODE": "M2N 1X8" }, "geometry": { "type": "Point", "coordinates": [ -79.415087186730602, 43.771728204934597 ] } },
{ "type": "Feature", "properties": { "_id": 9, "OBJECTID_1": 9, "FACILITY": "33 Division", "ORGANIZATION": "Toronto Police Services", "ADDRESS": "50 Upjohn Road ", "POSTAL_CODE": "M3B 2W1" }, "geometry": { "type": "Point", "coordinates": [ -79.350068663118606, 43.751081642194599 ] } },
{ "type": "Feature", "properties": { "_id": 10, "OBJECTID_1": 10, "FACILITY": "41 Division", "ORGANIZATION": "Toronto Police Services", "ADDRESS": "2222 Eglinton Avenue East ", "POSTAL_CODE": "M1K 2M2" }, "geometry": { "type": "Point", "coordinates": [ -79.277110452992503, 43.730805496861301 ] } },
{ "type": "Feature", "properties": { "_id": 11, "OBJECTID_1": 11, "FACILITY": "42 Division", "ORGANIZATION": "Toronto Police Services", "ADDRESS": "242 Milner Avenue", "POSTAL_CODE": "M1S 5C4" }, "geometry": { "type": "Point", "coordinates": [ -79.240012106044702, 43.789373894863601 ] } },
{ "type": "Feature", "properties": { "_id": 12, "OBJECTID_1": 12, "FACILITY": "43 Division", "ORGANIZATION": "Toronto Police Services", "ADDRESS": "4331 Lawrence Avenue East ", "POSTAL_CODE": "M1E 2T4" }, "geometry": { "type": "Point", "coordinates": [ -79.174056591293194, 43.770835358518497 ] } },
{ "type": "Feature", "properties": { "_id": 13, "OBJECTID_1": 13, "FACILITY": "51 Division", "ORGANIZATION": "Toronto Police Services", "ADDRESS": "51 Parliament Street", "POSTAL_CODE": "M5A 2Y5" }, "geometry": { "type": "Point", "coordinates": [ -79.362142235594007, 43.651951390118597 ] } },
{ "type": "Feature", "properties": { "_id": 14, "OBJECTID_1": 14, "FACILITY": "52 Division", "ORGANIZATION": "Toronto Police Services", "ADDRESS": "255 Dundas Street West ", "POSTAL_CODE": "M5T 2W5" }, "geometry": { "type": "Point", "coordinates": [ -79.389717591620993, 43.654209021290001 ] } },
{ "type": "Feature", "properties": { "_id": 15, "OBJECTID_1": 15, "FACILITY": "53 Division", "ORGANIZATION": "Toronto Police Services", "ADDRESS": "75 Eglinton Avenue West ", "POSTAL_CODE": "M4R 2G9" }, "geometry": { "type": "Point", "coordinates": [ -79.400661806520404, 43.706060012978 ] } },
{ "type": "Feature", "properties": { "_id": 16, "OBJECTID_1": 16, "FACILITY": "55 Substation", "ORGANIZATION": "Toronto Police Services", "ADDRESS": "41 Cranfield Road ", "POSTAL_CODE": "M4B 3H6" }, "geometry": { "type": "Point", "coordinates": [ -79.309482768007598, 43.7146083755555 ] } },
{ "type": "Feature", "properties": { "_id": 17, "OBJECTID_1": 17, "FACILITY": "55 Division", "ORGANIZATION": "Toronto Police Services", "ADDRESS": "101 Coxwell Avenue ", "POSTAL_CODE": "M4L 3B3" }, "geometry": { "type": "Point", "coordinates": [ -79.317299347674805, 43.669180018166102 ] } },
{ "type": "Feature", "properties": { "_id": 18, "OBJECTID_1": 18, "FACILITY": "Traffic Services", "ORGANIZATION": "Toronto Police Services", "ADDRESS": "9 Hanna Avenue", "POSTAL_CODE": "M6K 1W8" }, "geometry": { "type": "Point", "coordinates": [ -79.417224042031506, 43.637631413127103 ] } },
{ "type": "Feature", "properties": { "_id": 19, "OBJECTID_1": 19, "FACILITY": "East Collision Reporting Centre", "ORGANIZATION": "Toronto Police Services", "ADDRESS": "39 Howden Road", "POSTAL_CODE": "M1R 3C7" }, "geometry": { "type": "Point", "coordinates": [ -79.288237903150701, 43.749555496681303 ] } },
{ "type": "Feature", "properties": { "_id": 20, "OBJECTID_1": 20, "FACILITY": "North Collision Reporting Centre", "ORGANIZATION": "Toronto Police Services", "ADDRESS": "113 Toryork Drive ", "POSTAL_CODE": "M9L 1X9" }, "geometry": { "type": "Point", "coordinates": [ -79.551535209163106, 43.7564091641106 ] } },
{ "type": "Feature", "properties": { "_id": 21, "OBJECTID_1": 21, "FACILITY": "Mounted Unit", "ORGANIZATION": "Toronto Police Services", "ADDRESS": "91 Manitoba Drive ", "POSTAL_CODE": "M6K 3C3" }, "geometry": { "type": "Point", "coordinates": [ -79.418097802111404, 43.635266615669202 ] } },
{ "type": "Feature", "properties": { "_id": 22, "OBJECTID_1": 22, "FACILITY": "Toronto Police College", "ORGANIZATION": "Toronto Police Services", "ADDRESS": "70 Birmingham Street", "POSTAL_CODE": "M8V 3W6" }, "geometry": { "type": "Point", "coordinates": [ -79.503482378896294, 43.605084207509002 ] } },
{ "type": "Feature", "properties": { "_id": 23, "OBJECTID_1": 23, "FACILITY": "Headquarters", "ORGANIZATION": "Toronto Police Services", "ADDRESS": "40 College Street ", "POSTAL_CODE": "M5G 2J3" }, "geometry": { "type": "Point", "coordinates": [ -79.385142905759594, 43.661357715759898 ] } },
{ "type": "Feature", "properties": { "_id": 24, "OBJECTID_1": 24, "FACILITY": "Parking Enforcement East\/Property & Evidence Management", "ORGANIZATION": "Toronto Police Services", "ADDRESS": "330 Progress Avenue", "POSTAL_CODE": "M1P 2Z4" }, "geometry": { "type": "Point", "coordinates": [ -79.2685386609148, 43.774173146908701 ] } },
{ "type": "Feature", "properties": { "_id": 25, "OBJECTID_1": 25, "FACILITY": "Parking Enforcement West", "ORGANIZATION": "Toronto Police Services", "ADDRESS": "970 Lawrence Avenue West ", "POSTAL_CODE": "M6A 3B6" }, "geometry": { "type": "Point", "coordinates": [ -79.458292365645804, 43.713761023762999 ] } },
{ "type": "Feature", "properties": { "_id": 26, "OBJECTID_1": 26, "FACILITY": "Marine Headquarters", "ORGANIZATION": "Toronto Police Services", "ADDRESS": "259 Queens Quay West ", "POSTAL_CODE": "M5V 1A2" }, "geometry": { "type": "Point", "coordinates": [ -79.385874047008897, 43.637869851566698 ] } },
{ "type": "Feature", "properties": { "_id": 1, "OBJECTID_1": 1, "FACILITY": "11 Division", "ORGANIZATION": "Toronto Police Services", "ADDRESS": "2054 Davenport Road ", "POSTAL_CODE": "M6N 1C8" }, "geometry": { "type": "Point", "coordinates": [ -79.460828331832104, 43.671079704101999 ] } },
{ "type": "Feature", "properties": { "_id": 2, "OBJECTID_1": 2, "FACILITY": "12 Division ", "ORGANIZATION": "Toronto Police Services", "ADDRESS": "200 Trethewey Drive ", "POSTAL_CODE": "M6M 5E6" }, "geometry": { "type": "Point", "coordinates": [ -79.486875808172499, 43.694579142092799 ] } },
{ "type": "Feature", "properties": { "_id": 3, "OBJECTID_1": 3, "FACILITY": "13 Division", "ORGANIZATION": "Toronto Police Services", "ADDRESS": "1435 Eglinton Avenue West ", "POSTAL_CODE": "M6C 3Z4" }, "geometry": { "type": "Point", "coordinates": [ -79.436683017408996, 43.698327247001203 ] } },
{ "type": "Feature", "properties": { "_id": 4, "OBJECTID_1": 4, "FACILITY": "14 Division", "ORGANIZATION": "Toronto Police Services", "ADDRESS": "350 Dovercourt Road ", "POSTAL_CODE": "M6J 3E3" }, "geometry": { "type": "Point", "coordinates": [ -79.425981200993405, 43.6513054941584 ] } },
{ "type": "Feature", "properties": { "_id": 5, "OBJECTID_1": 5, "FACILITY": "22 Division", "ORGANIZATION": "Toronto Police Services", "ADDRESS": "3699 Bloor Street West ", "POSTAL_CODE": "M9A 1A2" }, "geometry": { "type": "Point", "coordinates": [ -79.529184555346504, 43.643106897093098 ] } },
{ "type": "Feature", "properties": { "_id": 6, "OBJECTID_1": 6, "FACILITY": "23 Division", "ORGANIZATION": "Toronto Police Services", "ADDRESS": "5230 Finch Avenue West ", "POSTAL_CODE": "M9V 0A1" }, "geometry": { "type": "Point", "coordinates": [ -79.583521688336603, 43.743866057459101 ] } },
{ "type": "Feature", "properties": { "_id": 7, "OBJECTID_1": 7, "FACILITY": "31 Division", "ORGANIZATION": "Toronto Police Services", "ADDRESS": "40 Norfinch Drive ", "POSTAL_CODE": "M3N 1X1" }, "geometry": { "type": "Point", "coordinates": [ -79.527474282482302, 43.756750469252097 ] } },
{ "type": "Feature", "properties": { "_id": 8, "OBJECTID_1": 8, "FACILITY": "32 Division", "ORGANIZATION": "Toronto Police Services", "ADDRESS": "30 Ellerslie Avenue ", "POSTAL_CODE": "M2N 1X8" }, "geometry": { "type": "Point", "coordinates": [ -79.415087186730602, 43.771728204934597 ] } },
{ "type": "Feature", "properties": { "_id": 9, "OBJECTID_1": 9, "FACILITY": "33 Division", "ORGANIZATION": "Toronto Police Services", "ADDRESS": "50 Upjohn Road ", "POSTAL_CODE": "M3B 2W1" }, "geometry": { "type": "Point", "coordinates": [ -79.350068663118606, 43.751081642194599 ] } },
{ "type": "Feature", "properties": { "_id": 10, "OBJECTID_1": 10, "FACILITY": "41 Division", "ORGANIZATION": "Toronto Police Services", "ADDRESS": "2222 Eglinton Avenue East ", "POSTAL_CODE": "M1K 2M2" }, "geometry": { "type": "Point", "coordinates": [ -79.277110452992503, 43.730805496861301 ] } },
{ "type": "Feature", "properties": { "_id": 11, "OBJECTID_1": 11, "FACILITY": "42 Division", "ORGANIZATION": "Toronto Police Services", "ADDRESS": "242 Milner Avenue", "POSTAL_CODE": "M1S 5C4" }, "geometry": { "type": "Point", "coordinates": [ -79.240012106044702, 43.789373894863601 ] } },
{ "type": "Feature", "properties": { "_id": 12, "OBJECTID_1": 12, "FACILITY": "43 Division", "ORGANIZATION": "Toronto Police Services", "ADDRESS": "4331 Lawrence Avenue East ", "POSTAL_CODE": "M1E 2T4" }, "geometry": { "type": "Point", "coordinates": [ -79.174056591293194, 43.770835358518497 ] } },
{ "type": "Feature", "properties": { "_id": 13, "OBJECTID_1": 13, "FACILITY": "51 Division", "ORGANIZATION": "Toronto Police Services", "ADDRESS": "51 Parliament Street", "POSTAL_CODE": "M5A 2Y5" }, "geometry": { "type": "Point", "coordinates": [ -79.362142235594007, 43.651951390118597 ] } },
{ "type": "Feature", "properties": { "_id": 14, "OBJECTID_1": 14, "FACILITY": "52 Division", "ORGANIZATION": "Toronto Police Services", "ADDRESS": "255 Dundas Street West ", "POSTAL_CODE": "M5T 2W5" }, "geometry": { "type": "Point", "coordinates": [ -79.389717591620993, 43.654209021290001 ] } },
{ "type": "Feature", "properties": { "_id": 15, "OBJECTID_1": 15, "FACILITY": "53 Division", "ORGANIZATION": "Toronto Police Services", "ADDRESS": "75 Eglinton Avenue West ", "POSTAL_CODE": "M4R 2G9" }, "geometry": { "type": "Point", "coordinates": [ -79.400661806520404, 43.706060012978 ] } },
{ "type": "Feature", "properties": { "_id": 16, "OBJECTID_1": 16, "FACILITY": "55 Substation", "ORGANIZATION": "Toronto Police Services", "ADDRESS": "41 Cranfield Road ", "POSTAL_CODE": "M4B 3H6" }, "geometry": { "type": "Point", "coordinates": [ -79.309482768007598, 43.7146083755555 ] } },
{ "type": "Feature", "properties": { "_id": 17, "OBJECTID_1": 17, "FACILITY": "55 Division", "ORGANIZATION": "Toronto Police Services", "ADDRESS": "101 Coxwell Avenue ", "POSTAL_CODE": "M4L 3B3" }, "geometry": { "type": "Point", "coordinates": [ -79.317299347674805, 43.669180018166102 ] } },
{ "type": "Feature", "properties": { "_id": 18, "OBJECTID_1": 18, "FACILITY": "Traffic Services", "ORGANIZATION": "Toronto Police Services", "ADDRESS": "9 Hanna Avenue", "POSTAL_CODE": "M6K 1W8" }, "geometry": { "type": "Point", "coordinates": [ -79.417224042031506, 43.637631413127103 ] } },
{ "type": "Feature", "properties": { "_id": 19, "OBJECTID_1": 19, "FACILITY": "East Collision Reporting Centre", "ORGANIZATION": "Toronto Police Services", "ADDRESS": "39 Howden Road", "POSTAL_CODE": "M1R 3C7" }, "geometry": { "type": "Point", "coordinates": [ -79.288237903150701, 43.749555496681303 ] } },
{ "type": "Feature", "properties": { "_id": 20, "OBJECTID_1": 20, "FACILITY": "North Collision Reporting Centre", "ORGANIZATION": "Toronto Police Services", "ADDRESS": "113 Toryork Drive ", "POSTAL_CODE": "M9L 1X9" }, "geometry": { "type": "Point", "coordinates": [ -79.551535209163106, 43.7564091641106 ] } },
{ "type": "Feature", "properties": { "_id": 21, "OBJECTID_1": 21, "FACILITY": "Mounted Unit", "ORGANIZATION": "Toronto Police Services", "ADDRESS": "91 Manitoba Drive ", "POSTAL_CODE": "M6K 3C3" }, "geometry": { "type": "Point", "coordinates": [ -79.418097802111404, 43.635266615669202 ] } },
{ "type": "Feature", "properties": { "_id": 22, "OBJECTID_1": 22, "FACILITY": "Toronto Police College", "ORGANIZATION": "Toronto Police Services", "ADDRESS": "70 Birmingham Street", "POSTAL_CODE": "M8V 3W6" }, "geometry": { "type": "Point", "coordinates": [ -79.503482378896294, 43.605084207509002 ] } },
{ "type": "Feature", "properties": { "_id": 23, "OBJECTID_1": 23, "FACILITY": "Headquarters", "ORGANIZATION": "Toronto Police Services", "ADDRESS": "40 College Street ", "POSTAL_CODE": "M5G 2J3" }, "geometry": { "type": "Point", "coordinates": [ -79.385142905759594, 43.661357715759898 ] } },
{ "type": "Feature", "properties": { "_id": 24, "OBJECTID_1": 24, "FACILITY": "Parking Enforcement East\/Property & Evidence Management", "ORGANIZATION": "Toronto Police Services", "ADDRESS": "330 Progress Avenue", "POSTAL_CODE": "M1P 2Z4" }, "geometry": { "type": "Point", "coordinates": [ -79.2685386609148, 43.774173146908701 ] } },
{ "type": "Feature", "properties": { "_id": 25, "OBJECTID_1": 25, "FACILITY": "Parking Enforcement West", "ORGANIZATION": "Toronto Police Services", "ADDRESS": "970 Lawrence Avenue West ", "POSTAL_CODE": "M6A 3B6" }, "geometry": { "type": "Point", "coordinates": [ -79.458292365645804, 43.713761023762999 ] } },
{ "type": "Feature", "properties": { "_id": 26, "OBJECTID_1": 26, "FACILITY": "Marine Headquarters", "ORGANIZATION": "Toronto Police Services", "ADDRESS": "259 Queens Quay West ", "POSTAL_CODE": "M5V 1A2" }, "geometry": { "type": "Point", "coordinates": [ -79.385874047008897, 43.637869851566698 ] } },
{ "type": "Feature", "properties": { "_id": 1, "OBJECTID_1": 1, "FACILITY": "11 Division", "ORGANIZATION": "Toronto Police Services", "ADDRESS": "2054 Davenport Road ", "POSTAL_CODE": "M6N 1C8" }, "geometry": { "type": "Point", "coordinates": [ -79.460828331832104, 43.671079704101999 ] } },
{ "type": "Feature", "properties": { "_id": 2, "OBJECTID_1": 2, "FACILITY": "12 Division ", "ORGANIZATION": "Toronto Police Services", "ADDRESS": "200 Trethewey Drive ", "POSTAL_CODE": "M6M 5E6" }, "geometry": { "type": "Point", "coordinates": [ -79.486875808172499, 43.694579142092799 ] } },
{ "type": "Feature", "properties": { "_id": 3, "OBJECTID_1": 3, "FACILITY": "13 Division", "ORGANIZATION": "Toronto Police Services", "ADDRESS": "1435 Eglinton Avenue West ", "POSTAL_CODE": "M6C 3Z4" }, "geometry": { "type": "Point", "coordinates": [ -79.436683017408996, 43.698327247001203 ] } },
{ "type": "Feature", "properties": { "_id": 4, "OBJECTID_1": 4, "FACILITY": "14 Division", "ORGANIZATION": "Toronto Police Services", "ADDRESS": "350 Dovercourt Road ", "POSTAL_CODE": "M6J 3E3" }, "geometry": { "type": "Point", "coordinates": [ -79.425981200993405, 43.6513054941584 ] } },
{ "type": "Feature", "properties": { "_id": 5, "OBJECTID_1": 5, "FACILITY": "22 Division", "ORGANIZATION": "Toronto Police Services", "ADDRESS": "3699 Bloor Street West ", "POSTAL_CODE": "M9A 1A2" }, "geometry": { "type": "Point", "coordinates": [ -79.529184555346504, 43.643106897093098 ] } },
{ "type": "Feature", "properties": { "_id": 6, "OBJECTID_1": 6, "FACILITY": "23 Division", "ORGANIZATION": "Toronto Police Services", "ADDRESS": "5230 Finch Avenue West ", "POSTAL_CODE": "M9V 0A1" }, "geometry": { "type": "Point", "coordinates": [ -79.583521688336603, 43.743866057459101 ] } },
{ "type": "Feature", "properties": { "_id": 7, "OBJECTID_1": 7, "FACILITY": "31 Division", "ORGANIZATION": "Toronto Police Services", "ADDRESS": "40 Norfinch Drive ", "POSTAL_CODE": "M3N 1X1" }, "geometry": { "type": "Point", "coordinates": [ -79.527474282482302, 43.756750469252097 ] } },
{ "type": "Feature", "properties": { "_id": 8, "OBJECTID_1": 8, "FACILITY": "32 Division", "ORGANIZATION": "Toronto Police Services", "ADDRESS": "30 Ellerslie Avenue ", "POSTAL_CODE": "M2N 1X8" }, "geometry": { "type": "Point", "coordinates": [ -79.415087186730602, 43.771728204934597 ] } },
{ "type": "Feature", "properties": { "_id": 9, "OBJECTID_1": 9, "FACILITY": "33 Division", "ORGANIZATION": "Toronto Police Services", "ADDRESS": "50 Upjohn Road ", "POSTAL_CODE": "M3B 2W1" }, "geometry": { "type": "Point", "coordinates": [ -79.350068663118606, 43.751081642194599 ] } },
{ "type": "Feature", "properties": { "_id": 10, "OBJECTID_1": 10, "FACILITY": "41 Division", "ORGANIZATION": "Toronto Police Services", "ADDRESS": "2222 Eglinton Avenue East ", "POSTAL_CODE": "M1K 2M2" }, "geometry": { "type": "Point", "coordinates": [ -79.277110452992503, 43.730805496861301 ] } },
{ "type": "Feature", "properties": { "_id": 11, "OBJECTID_1": 11, "FACILITY": "42 Division", "ORGANIZATION": "Toronto Police Services", "ADDRESS": "242 Milner Avenue", "POSTAL_CODE": "M1S 5C4" }, "geometry": { "type": "Point", "coordinates": [ -79.240012106044702, 43.789373894863601 ] } },
{ "type": "Feature", "properties": { "_id": 12, "OBJECTID_1": 12, "FACILITY": "43 Division", "ORGANIZATION": "Toronto Police Services", "ADDRESS": "4331 Lawrence Avenue East ", "POSTAL_CODE": "M1E 2T4" }, "geometry": { "type": "Point", "coordinates": [ -79.174056591293194, 43.770835358518497 ] } },
{ "type": "Feature", "properties": { "_id": 13, "OBJECTID_1": 13, "FACILITY": "51 Division", "ORGANIZATION": "Toronto Police Services", "ADDRESS": "51 Parliament Street", "POSTAL_CODE": "M5A 2Y5" }, "geometry": { "type": "Point", "coordinates": [ -79.362142235594007, 43.651951390118597 ] } },
{ "type": "Feature", "properties": { "_id": 14, "OBJECTID_1": 14, "FACILITY": "52 Division", "ORGANIZATION": "Toronto Police Services", "ADDRESS": "255 Dundas Street West ", "POSTAL_CODE": "M5T 2W5" }, "geometry": { "type": "Point", "coordinates": [ -79.389717591620993, 43.654209021290001 ] } },
{ "type": "Feature", "properties": { "_id": 15, "OBJECTID_1": 15, "FACILITY": "53 Division", "ORGANIZATION": "Toronto Police Services", "ADDRESS": "75 Eglinton Avenue West ", "POSTAL_CODE": "M4R 2G9" }, "geometry": { "type": "Point", "coordinates": [ -79.400661806520404, 43.706060012978 ] } },
{ "type": "Feature", "properties": { "_id": 16, "OBJECTID_1": 16, "FACILITY": "55 Substation", "ORGANIZATION": "Toronto Police Services", "ADDRESS": "41 Cranfield Road ", "POSTAL_CODE": "M4B 3H6" }, "geometry": { "type": "Point", "coordinates": [ -79.309482768007598, 43.7146083755555 ] } },
{ "type": "Feature", "properties": { "_id": 17, "OBJECTID_1": 17, "FACILITY": "55 Division", "ORGANIZATION": "Toronto Police Services", "ADDRESS": "101 Coxwell Avenue ", "POSTAL_CODE": "M4L 3B3" }, "geometry": { "type": "Point", "coordinates": [ -79.317299347674805, 43.669180018166102 ] } },
{ "type": "Feature", "properties": { "_id": 18, "OBJECTID_1": 18, "FACILITY": "Traffic Services", "ORGANIZATION": "Toronto Police Services", "ADDRESS": "9 Hanna Avenue", "POSTAL_CODE": "M6K 1W8" }, "geometry": { "type": "Point", "coordinates": [ -79.417224042031506, 43.637631413127103 ] } },
{ "type": "Feature", "properties": { "_id": 19, "OBJECTID_1": 19, "FACILITY": "East Collision Reporting Centre", "ORGANIZATION": "Toronto Police Services", "ADDRESS": "39 Howden Road", "POSTAL_CODE": "M1R 3C7" }, "geometry": { "type": "Point", "coordinates": [ -79.288237903150701, 43.749555496681303 ] } },
{ "type": "Feature", "properties": { "_id": 20, "OBJECTID_1": 20, "FACILITY": "North Collision Reporting Centre", "ORGANIZATION": "Toronto Police Services", "ADDRESS": "113 Toryork Drive ", "POSTAL_CODE": "M9L 1X9" }, "geometry": { "type": "Point", "coordinates": [ -79.551535209163106, 43.7564091641106 ] } },
{ "type": "Feature", "properties": { "_id": 21, "OBJECTID_1": 21, "FACILITY": "Mounted Unit", "ORGANIZATION": "Toronto Police Services", "ADDRESS": "91 Manitoba Drive ", "POSTAL_CODE": "M6K 3C3" }, "geometry": { "type": "Point", "coordinates": [ -79.418097802111404, 43.635266615669202 ] } },
{ "type": "Feature", "properties": { "_id": 22, "OBJECTID_1": 22, "FACILITY": "Toronto Police College", "ORGANIZATION": "Toronto Police Services", "ADDRESS": "70 Birmingham Street", "POSTAL_CODE": "M8V 3W6" }, "geometry": { "type": "Point", "coordinates": [ -79.503482378896294, 43.605084207509002 ] } },
{ "type": "Feature", "properties": { "_id": 23, "OBJECTID_1": 23, "FACILITY": "Headquarters", "ORGANIZATION": "Toronto Police Services", "ADDRESS": "40 College Street ", "POSTAL_CODE": "M5G 2J3" }, "geometry": { "type": "Point", "coordinates": [ -79.385142905759594, 43.661357715759898 ] } },
{ "type": "Feature", "properties": { "_id": 24, "OBJECTID_1": 24, "FACILITY": "Parking Enforcement East\/Property & Evidence Management", "ORGANIZATION": "Toronto Police Services", "ADDRESS": "330 Progress Avenue", "POSTAL_CODE": "M1P 2Z4" }, "geometry": { "type": "Point", "coordinates": [ -79.2685386609148, 43.774173146908701 ] } },
{ "type": "Feature", "properties": { "_id": 25, "OBJECTID_1": 25, "FACILITY": "Parking Enforcement West", "ORGANIZATION": "Toronto Police Services", "ADDRESS": "970 Lawrence Avenue West ", "POSTAL_CODE": "M6A 3B6" }, "geometry": { "type": "Point", "coordinates": [ -79.458292365645804, 43.713761023762999 ] } },
{ "type": "Feature", "properties": { "_id": 26, "OBJECTID_1": 26, "FACILITY": "Marine Headquarters", "ORGANIZATION": "Toronto Police Services", "ADDRESS": "259 Queens Quay West ", "POSTAL_CODE": "M5V 1A2" }, "geometry": { "type": "Point", "coordinates": [ -79.385874047008897, 43.637869851566698 ] } }
]
}
